OBJECT_NAME,OBJECT_ID,EPOCH,MEAN_MOTION,ECCENTRICITY,INCLINATION,RA_OF_ASC_NODE,ARG_OF_PERICENTER,MEAN_ANOMALY,EPHEMERIS_TYPE,CLASSIFICATION_TYPE,NORAD_CAT_ID,ELEMENT_SET_NO,REV_AT_EPOCH,BSTAR,MEAN_MOTION_DOT,MEAN_MOTION_DDOT
CUBEBUG-2 (LO-74),2013-066AA,2026-06-10T02:18:58.118400,14.93705686,.00590877,97.8902,110.0449,51.9853,308.6680,0,U,39440,999,67593,.32201289E-3,.3464E-4,0
FUNCUBE-1 (AO-73),2013-066AE,2026-06-10T03:53:39.631200,15.09404981,.00349533,97.8264,132.4615,225.4147,134.4228,0,U,39444,999,67860,.33442229E-3,.5353E-4,0
UWE-3,2013-066AG,2026-06-10T03:07:52.062816,14.96967920,.00486625,97.8685,117.1571,344.7844,15.1910,0,U,39446,999,67652,.3417145E-3,.3961E-4,0
UNISAT-6,2014-033C,2026-06-10T04:59:36.263040,14.88208778,.00464243,97.7868,314.0439,91.6430,269.0105,0,U,40012,999,64512,.26317509E-3,.242E-4,0
DUCHIFAT-1,2014-033M,2026-06-09T15:55:00.117120,15.63096310,.00042507,98.0468,218.7756,128.7819,231.3818,0,U,40021,999,65457,.97274361E-3,.89241E-3,0
QB50P1,2014-033R,2026-06-10T07:05:40.272864,15.18156490,.00072306,98.0973,171.9588,242.7053,117.3443,0,U,40025,999,65198,.3817625E-3,.7727E-4,0
LILACSAT-2,2015-049K,2026-06-10T07:20:35.178144,15.51218026,.00052612,97.4659,197.8865,278.2795,81.7861,0,U,40908,999,59468,.28985484E-3,.1688E-3,0
FOX-1A (AO-85),2015-058D,2026-06-10T02:36:07.731648,14.90935600,.01300364,64.7758,300.9815,59.3571,302.0285,0,U,40967,999,11251,.22165749E-3,.24E-4,0
CAS-2T & KS-1Q,2016-066G,2026-06-10T04:13:19.278912,14.44670996,.0342548,98.3822,236.9922,150.6915,211.3981,0,U,41847,999,50378,.22451256E-3,.1549E-4,0
RADFXSAT (FOX-1B),2017-073E,2026-06-09T14:25:08.794272,15.12592571,.01506991,97.4720,27.9710,355.5385,4.4491,0,U,43017,999,46424,.33267068E-3,.7602E-4,0
DIWATA-2B,2018-084H,2026-06-10T07:13:23.166912,15.00418729,.00121278,98.1177,357.2106,192.6809,167.4110,0,U,43678,999,41518,.17531641E-3,.2141E-4,0
ES'HAIL 2,2018-090A,2026-06-10T06:34:09.954912,1.00273901,.0001901,0.0130,295.1016,185.1228,262.7748,0,U,43700,999,2760,0,.162E-5,0
FOX-1CLIFF (AO-95),2018-099N,2026-06-09T17:40:40.880928,15.26553683,.0008751,97.4390,221.0109,24.8412,335.3246,0,U,43770,999,41208,.4088E-3,.10631E-3,0
ITASAT,2018-099AE,2026-06-10T07:15:37.491264,15.18970169,.00128469,97.4034,212.9518,24.1662,336.0173,0,U,43786,999,41186,.31056736E-3,.644E-4,0
JY1SAT (JO-97),2018-099AX,2026-06-10T02:44:04.435008,15.33429169,.00041414,97.4135,223.9246,297.4250,62.6571,0,U,43803,999,41254,.50087115E-3,.16123E-3,0
UWE-4,2018-111E,2026-06-10T00:43:32.539872,15.45678034,.00069041,97.5850,89.0931,11.8229,348.3181,0,U,43880,999,40967,.71452966E-3,.34515E-3,0
TIANYAN 01,2019-093C,2026-06-10T05:54:27.389376,14.86510299,.00149914,97.7530,233.6475,107.2692,253.0166,0,U,44881,999,35038,.11778134E-3,.991E-5,0
RS-44 & BREEZE-KM R/B,2019-096E,2026-06-10T04:52:53.619168,12.79748682,.02178563,82.5217,344.3466,160.4503,200.5118,0,U,44909,999,30145,.94045882E-4,.36E-6,0
SALSAT,2020-068K,2026-06-10T06:39:18.129024,15.29700288,.00086487,97.8853,163.9217,336.5873,23.4971,0,U,46495,999,31430,.26694921E-3,.7605E-4,0
XW-3 (CAS-9),2021-131B,2026-06-10T07:42:08.819424,14.41351268,.00052683,98.4971,253.7478,112.5579,247.6168,0,U,50466,999,23412,.13889081E-3,.406E-5,0
GREENCUBE (IO-117),2022-080E,2026-06-01T11:09:37.753056,6.42583280,.00088692,70.1435,303.7143,293.3663,66.6064,0,U,53109,999,9105,0,-.3E-7,0
UMKA 1 (RS40S),2023-091G,2026-06-10T06:01:21.905472,15.20737122,.00139306,97.5056,219.9750,139.3886,220.8391,0,U,57172,999,16295,.26804723E-3,.5843E-4,0
CUBESX-HSE 3 (RS42S),2023-091N,2026-06-10T05:54:48.617856,15.31039292,.00121598,97.5097,226.7465,115.9875,244.2620,0,U,57178,999,16336,.42934671E-3,.12832E-3,0
MONITOR-3 (RS58S),2023-091Q,2026-06-10T06:08:08.290464,15.27701327,.00130578,97.5089,224.6514,122.1684,238.0824,0,U,57180,999,16323,.38709378E-3,.10432E-3,0
MONITOR-4 (RS57S),2023-091S,2026-06-10T07:12:51.702624,15.27794457,.00130704,97.5082,224.6673,122.4847,237.7657,0,U,57182,999,16324,.34615982E-3,.9346E-4,0
MONITOR-2 (RS39S),2023-091U,2026-06-10T06:19:29.291808,15.18845275,.00124698,97.5078,219.5913,132.2923,227.9371,0,U,57184,999,16290,.21200548E-3,.4356E-4,0
SVYATOBOR 1 (RS60S),2023-091X,2026-06-10T07:23:15.317088,15.26497139,.00109034,97.5094,225.0870,115.0182,245.2189,0,U,57187,999,16326,.32333572E-3,.838E-4,0
VIZARD-METEO (RS38S),2023-091Z,2026-06-10T07:21:56.899584,15.35805031,.00086174,97.5096,230.6552,98.1510,262.0711,0,U,57189,999,16363,.43385822E-3,.1506E-3,0
POLYTECH-UNIVERSE 3 (RS46S),2023-091AB,2026-06-10T06:59:58.575552,15.19047087,.00164387,97.5053,219.1237,148.9027,211.3184,0,U,57191,999,16290,.23054684E-3,.4778E-4,0
UTMN 2 (RS27S),2023-091AP,2026-06-10T03:17:29.197536,15.31877864,.00094716,97.5092,228.2613,104.7694,255.4597,0,U,57203,999,16346,.41789417E-3,.12807E-3,0
