CUBEBUG-2 (LO-74)       
1 39440U 13066AA  26161.09650600  .00003464  00000+0  32201-3 0  9995
2 39440  97.8902 110.0449 0059087  51.9853 308.6680 14.93705686675936
FUNCUBE-1 (AO-73)       
1 39444U 13066AE  26161.16226425  .00005353  00000+0  33442-3 0  9998
2 39444  97.8264 132.4615 0034953 225.4147 134.4228 15.09404981678605
UWE-3                   
1 39446U 13066AG  26161.13046369  .00003961  00000+0  34171-3 0  9997
2 39446  97.8685 117.1571 0048662 344.7844  15.1910 14.96967920676520
UNISAT-6                
1 40012U 14033C   26161.20805860  .00002420  00000+0  26318-3 0  9993
2 40012  97.7868 314.0439 0046424  91.6430 269.0105 14.88208778645125
DUCHIFAT-1              
1 40021U 14033M   26160.66319580  .00089241  00000+0  97274-3 0  9996
2 40021  98.0468 218.7756 0004250 128.7819 231.3818 15.63096310654574
QB50P1                  
1 40025U 14033R   26161.29560501  .00007727  00000+0  38176-3 0  9996
2 40025  98.0973 171.9588 0007230 242.7053 117.3443 15.18156490651985
LILACSAT-2              
1 40908U 15049K   26161.30596271  .00016880  00000+0  28985-3 0  9996
2 40908  97.4659 197.8865 0005261 278.2795  81.7861 15.51218026594685
FOX-1A (AO-85)          
1 40967U 15058D   26161.10842282  .00002400  00000+0  22166-3 0  9993
2 40967  64.7758 300.9815 0130036  59.3571 302.0285 14.90935600112511
CAS-2T & KS-1Q          
1 41847U 16066G   26161.17591758  .00001549  00000+0  22451-3 0  9997
2 41847  98.3822 236.9922 0342548 150.6915 211.3981 14.44670996503782
RADFXSAT (FOX-1B)       
1 43017U 17073E   26160.60079623  .00007602  00000+0  33267-3 0  9999
2 43017  97.4720  27.9710 0150699 355.5385   4.4491 15.12592571464246
DIWATA-2B               
1 43678U 18084H   26161.30096258  .00002141  00000+0  17532-3 0  9996
2 43678  98.1177 357.2106 0012127 192.6809 167.4110 15.00418729415181
ES'HAIL 2               
1 43700U 18090A   26161.27372633  .00000162  00000+0  00000+0 0  9998
2 43700   0.0130 295.1016 0001901 185.1228 262.7748  1.00273901 27606
FOX-1CLIFF (AO-95)      
1 43770U 18099N   26160.73658427  .00010631  00000+0  40880-3 0  9998
2 43770  97.4390 221.0109 0008751  24.8412 335.3246 15.26553683412087
ITASAT                  
1 43786U 18099AE  26161.30251726  .00006440  00000+0  31057-3 0  9999
2 43786  97.4034 212.9518 0012846  24.1662 336.0173 15.18970169411867
JY1SAT (JO-97)          
1 43803U 18099AX  26161.11394022  .00016123  00000+0  50087-3 0  9998
2 43803  97.4135 223.9246 0004141 297.4250  62.6571 15.33429169412542
UWE-4                   
1 43880U 18111E   26161.03023773  .00034515  00000+0  71453-3 0  9996
2 43880  97.5850  89.0931 0006904  11.8229 348.3181 15.45678034409678
TIANYAN 01              
1 44881U 19093C   26161.24615034  .00000991  00000+0  11778-3 0  9993
2 44881  97.7530 233.6475 0014991 107.2692 253.0166 14.86510299350386
RS-44 & BREEZE-KM R/B   
1 44909U 19096E   26161.20339837  .00000036  00000+0  94046-4 0  9997
2 44909  82.5217 344.3466 0217856 160.4503 200.5118 12.79748682301455
SALSAT                  
1 46495U 20068K   26161.27729316  .00007605  00000+0  26695-3 0  9995
2 46495  97.8853 163.9217 0008648 336.5873  23.4971 15.29700288314309
XW-3 (CAS-9)            
1 50466U 21131B   26161.32093541  .00000406  00000+0  13889-3 0  9993
2 50466  98.4971 253.7478 0005268 112.5579 247.6168 14.41351268234129
GREENCUBE (IO-117)      
1 53109U 22080E   26152.46502029 -.00000003  00000+0  00000+0 0  9996
2 53109  70.1435 303.7143 0008869 293.3663  66.6064  6.42583280 91055
UMKA 1 (RS40S)          
1 57172U 23091G   26161.25094798  .00005843  00000+0  26805-3 0  9990
2 57172  97.5056 219.9750 0013930 139.3886 220.8391 15.20737122162951
CUBESX-HSE 3 (RS42S)    
1 57178U 23091N   26161.24639604  .00012832  00000+0  42935-3 0  9994
2 57178  97.5097 226.7465 0012159 115.9875 244.2620 15.31039292163367
MONITOR-3 (RS58S)       
1 57180U 23091Q   26161.25565151  .00010432  00000+0  38709-3 0  9991
2 57180  97.5089 224.6514 0013057 122.1684 238.0824 15.27701327163232
MONITOR-4 (RS57S)       
1 57182U 23091S   26161.30059841  .00009346  00000+0  34616-3 0  9998
2 57182  97.5082 224.6673 0013070 122.4847 237.7657 15.27794457163249
MONITOR-2 (RS39S)       
1 57184U 23091U   26161.26353347  .00004356  00000+0  21201-3 0  9995
2 57184  97.5078 219.5913 0012469 132.2923 227.9371 15.18845275162902
SVYATOBOR 1 (RS60S)     
1 57187U 23091X   26161.30781617  .00008380  00000+0  32334-3 0  9998
2 57187  97.5094 225.0870 0010903 115.0182 245.2189 15.26497139163265
VIZARD-METEO (RS38S)    
1 57189U 23091Z   26161.30690856  .00015060  00000+0  43386-3 0  9996
2 57189  97.5096 230.6552 0008617  98.1510 262.0711 15.35805031163636
POLYTECH-UNIVERSE 3 (R*)
1 57191U 23091AB  26161.29165018  .00004778  00000+0  23055-3 0  9999
2 57191  97.5053 219.1237 0016438 148.9027 211.3184 15.19047087162902
UTMN 2 (RS27S)          
1 57203U 23091AP  26161.13714349  .00012807  00000+0  41789-3 0  9999
2 57203  97.5092 228.2613 0009471 104.7694 255.4597 15.31877864163464
